DELTA 2 R/B(1)          
1 20453U 90008B   26061.44271042  .00074557  00000+0  90521-3 0  9997
2 20453  35.6028 222.3764 0086982 191.5547 168.3190 15.54850817925009
COSMOS 2058             
1 20465U 90010A   26061.43116951  .00005022  00000+0  29680-3 0  9998
2 20465  82.4664  54.5789 0009901   7.4003 352.7371 15.11242251941141
SL-14 R/B               
1 20466U 90010B   26061.80733431  .00000485  00000+0  55834-4 0  9997
2 20466  82.4992 273.8552 0018973 326.3640  33.6369 14.83561811927464
SL-14 R/B               
1 20511U 90018B   26061.54850447  .00000644  00000+0  77763-4 0  9996
2 20511  82.5190 229.7650 0017578 113.6977 246.6084 14.82135482921526
HST                     
1 20580U 90037B   26061.37345004  .00009122  00000+0  30343-3 0  9994
2 20580  28.4700  89.9045 0001638  52.0942 307.9801 15.29345912772198
SL-16 R/B               
1 20625U 90046B   26061.76939861 -.00000167  00000+0 -61340-4 0  9991
2 20625  71.0004 312.4485 0016107 308.9570  51.0117 14.15014801847417
COSMOS 2084             
1 20663U 90055A   26061.81474518  .00003481  00000+0  25332-3 0  9992
2 20663  62.7923 359.0238 0018174 188.4625 171.6172 15.05598986935281
SL-6 R/B(2)             
1 20666U 90055D   26061.78800510  .00002402  00000+0  18863-3 0  9999
2 20666  62.7820 277.3217 0023679 345.3200  14.7209 15.03555063937151
SL-8 R/B                
1 20775U 90078B   26061.58658146  .00016433  00000+0  48266-3 0  9998
2 20775  82.8991 257.6993 0363985  37.8564 324.7656 14.88781381808242
SL-8 R/B                
1 21088U 91006B   26061.80681642  .00000049  00000+0  34070-4 0  9995
2 21088  82.9463 175.1623 0023437  56.9103  55.3984 13.77493276763123
OKEAN-3                 
1 21397U 91039A   26061.76334032  .00003815  00000+0  26828-3 0  9992
2 21397  82.5201 343.5519 0014363   3.0672 357.0640 15.04744684863990
COSMOS 2151             
1 21422U 91042A   26061.81278819  .00002206  00000+0  17467-3 0  9993
2 21422  82.4931  90.3116 0014145  84.1054 276.1782 15.00072578862168
