CCSDS_OMM_VERS = 2.0
CREATION_DATE  = 
ORIGINATOR     = 

OBJECT_NAME    = DELTA 2 R/B(1)
OBJECT_ID      = 1990-008B
CENTER_NAME    = EARTH
REF_FRAME      = TEME
TIME_SYSTEM    = UTC
MEAN_ELEMENT_THEORY = SGP/SGP4

EPOCH          = 2026-03-02T10:37:30.180288
MEAN_MOTION    = 15.54850817
ECCENTRICITY   = .00869822
INCLINATION    = 35.6028
RA_OF_ASC_NODE = 222.3764
ARG_OF_PERICENTER = 191.5547
MEAN_ANOMALY   = 168.3190

EPHEMERIS_TYPE = 0
CLASSIFICATION_TYPE = U
NORAD_CAT_ID   = 20453
ELEMENT_SET_NO = 999
REV_AT_EPOCH   = 92500
BSTAR          = .9052081E-3
MEAN_MOTION_DOT = .74557E-3
MEAN_MOTION_DDOT = 0

CCSDS_OMM_VERS = 2.0
CREATION_DATE  = 
ORIGINATOR     = 

OBJECT_NAME    = COSMOS 2058
OBJECT_ID      = 1990-010A
CENTER_NAME    = EARTH
REF_FRAME      = TEME
TIME_SYSTEM    = UTC
MEAN_ELEMENT_THEORY = SGP/SGP4

EPOCH          = 2026-03-02T10:20:53.045664
MEAN_MOTION    = 15.11242251
ECCENTRICITY   = .00099013
INCLINATION    = 82.4664
RA_OF_ASC_NODE = 54.5789
ARG_OF_PERICENTER = 7.4003
MEAN_ANOMALY   = 352.7371

EPHEMERIS_TYPE = 0
CLASSIFICATION_TYPE = U
NORAD_CAT_ID   = 20465
ELEMENT_SET_NO = 999
REV_AT_EPOCH   = 94114
BSTAR          = .29680016E-3
MEAN_MOTION_DOT = .5022E-4
MEAN_MOTION_DDOT = 0

CCSDS_OMM_VERS = 2.0
CREATION_DATE  = 
ORIGINATOR     = 

OBJECT_NAME    = SL-14 R/B
OBJECT_ID      = 1990-010B
CENTER_NAME    = EARTH
REF_FRAME      = TEME
TIME_SYSTEM    = UTC
MEAN_ELEMENT_THEORY = SGP/SGP4

EPOCH          = 2026-03-02T19:22:33.684384
MEAN_MOTION    = 14.83561811
ECCENTRICITY   = .0018973
INCLINATION    = 82.4992
RA_OF_ASC_NODE = 273.8552
ARG_OF_PERICENTER = 326.3640
MEAN_ANOMALY   = 33.6369

EPHEMERIS_TYPE = 0
CLASSIFICATION_TYPE = U
NORAD_CAT_ID   = 20466
ELEMENT_SET_NO = 999
REV_AT_EPOCH   = 92746
BSTAR          = .55834E-4
MEAN_MOTION_DOT = .485E-5
MEAN_MOTION_DDOT = 0

CCSDS_OMM_VERS = 2.0
CREATION_DATE  = 
ORIGINATOR     = 

OBJECT_NAME    = SL-14 R/B
OBJECT_ID      = 1990-018B
CENTER_NAME    = EARTH
REF_FRAME      = TEME
TIME_SYSTEM    = UTC
MEAN_ELEMENT_THEORY = SGP/SGP4

EPOCH          = 2026-03-02T13:09:50.786208
MEAN_MOTION    = 14.82135482
ECCENTRICITY   = .0017578
INCLINATION    = 82.5190
RA_OF_ASC_NODE = 229.7650
ARG_OF_PERICENTER = 113.6977
MEAN_ANOMALY   = 246.6084

EPHEMERIS_TYPE = 0
CLASSIFICATION_TYPE = U
NORAD_CAT_ID   = 20511
ELEMENT_SET_NO = 999
REV_AT_EPOCH   = 92152
BSTAR          = .77763E-4
MEAN_MOTION_DOT = .644E-5
MEAN_MOTION_DDOT = 0

CCSDS_OMM_VERS = 2.0
CREATION_DATE  = 
ORIGINATOR     = 

OBJECT_NAME    = HST
OBJECT_ID      = 1990-037B
CENTER_NAME    = EARTH
REF_FRAME      = TEME
TIME_SYSTEM    = UTC
MEAN_ELEMENT_THEORY = SGP/SGP4

EPOCH          = 2026-03-02T08:57:46.083456
MEAN_MOTION    = 15.29345912
ECCENTRICITY   = .00016383
INCLINATION    = 28.4700
RA_OF_ASC_NODE = 89.9045
ARG_OF_PERICENTER = 52.0942
MEAN_ANOMALY   = 307.9801

EPHEMERIS_TYPE = 0
CLASSIFICATION_TYPE = U
NORAD_CAT_ID   = 20580
ELEMENT_SET_NO = 999
REV_AT_EPOCH   = 77219
BSTAR          = .3034347E-3
MEAN_MOTION_DOT = .9122E-4
MEAN_MOTION_DDOT = 0

CCSDS_OMM_VERS = 2.0
CREATION_DATE  = 
ORIGINATOR     = 

OBJECT_NAME    = SL-16 R/B
OBJECT_ID      = 1990-046B
CENTER_NAME    = EARTH
REF_FRAME      = TEME
TIME_SYSTEM    = UTC
MEAN_ELEMENT_THEORY = SGP/SGP4

EPOCH          = 2026-03-02T18:27:56.039904
MEAN_MOTION    = 14.15014801
ECCENTRICITY   = .0016107
INCLINATION    = 71.0004
RA_OF_ASC_NODE = 312.4485
ARG_OF_PERICENTER = 308.9570
MEAN_ANOMALY   = 51.0117

EPHEMERIS_TYPE = 0
CLASSIFICATION_TYPE = U
NORAD_CAT_ID   = 20625
ELEMENT_SET_NO = 999
REV_AT_EPOCH   = 84741
BSTAR          = -.6134E-4
MEAN_MOTION_DOT = -.167E-5
MEAN_MOTION_DDOT = 0

CCSDS_OMM_VERS = 2.0
CREATION_DATE  = 
ORIGINATOR     = 

OBJECT_NAME    = COSMOS 2084
OBJECT_ID      = 1990-055A
CENTER_NAME    = EARTH
REF_FRAME      = TEME
TIME_SYSTEM    = UTC
MEAN_ELEMENT_THEORY = SGP/SGP4

EPOCH          = 2026-03-02T19:33:13.983552
MEAN_MOTION    = 15.05598986
ECCENTRICITY   = .0018174
INCLINATION    = 62.7923
RA_OF_ASC_NODE = 359.0238
ARG_OF_PERICENTER = 188.4625
MEAN_ANOMALY   = 171.6172

EPHEMERIS_TYPE = 0
CLASSIFICATION_TYPE = U
NORAD_CAT_ID   = 20663
ELEMENT_SET_NO = 999
REV_AT_EPOCH   = 93528
BSTAR          = .25332E-3
MEAN_MOTION_DOT = .3481E-4
MEAN_MOTION_DDOT = 0

CCSDS_OMM_VERS = 2.0
CREATION_DATE  = 
ORIGINATOR     = 

OBJECT_NAME    = SL-6 R/B(2)
OBJECT_ID      = 1990-055D
CENTER_NAME    = EARTH
REF_FRAME      = TEME
TIME_SYSTEM    = UTC
MEAN_ELEMENT_THEORY = SGP/SGP4

EPOCH          = 2026-03-02T18:54:43.640640
MEAN_MOTION    = 15.03555063
ECCENTRICITY   = .0023679
INCLINATION    = 62.7820
RA_OF_ASC_NODE = 277.3217
ARG_OF_PERICENTER = 345.3200
MEAN_ANOMALY   = 14.7209

EPHEMERIS_TYPE = 0
CLASSIFICATION_TYPE = U
NORAD_CAT_ID   = 20666
ELEMENT_SET_NO = 999
REV_AT_EPOCH   = 93715
BSTAR          = .18863E-3
MEAN_MOTION_DOT = .2402E-4
MEAN_MOTION_DDOT = 0

CCSDS_OMM_VERS = 2.0
CREATION_DATE  = 
ORIGINATOR     = 

OBJECT_NAME    = SL-8 R/B
OBJECT_ID      = 1990-078B
CENTER_NAME    = EARTH
REF_FRAME      = TEME
TIME_SYSTEM    = UTC
MEAN_ELEMENT_THEORY = SGP/SGP4

EPOCH          = 2026-03-02T14:04:40.638144
MEAN_MOTION    = 14.88781381
ECCENTRICITY   = .0363985
INCLINATION    = 82.8991
RA_OF_ASC_NODE = 257.6993
ARG_OF_PERICENTER = 37.8564
MEAN_ANOMALY   = 324.7656

EPHEMERIS_TYPE = 0
CLASSIFICATION_TYPE = U
NORAD_CAT_ID   = 20775
ELEMENT_SET_NO = 999
REV_AT_EPOCH   = 80824
BSTAR          = .48266E-3
MEAN_MOTION_DOT = .16433E-3
MEAN_MOTION_DDOT = 0

CCSDS_OMM_VERS = 2.0
CREATION_DATE  = 
ORIGINATOR     = 

OBJECT_NAME    = SL-8 R/B
OBJECT_ID      = 1991-006B
CENTER_NAME    = EARTH
REF_FRAME      = TEME
TIME_SYSTEM    = UTC
MEAN_ELEMENT_THEORY = SGP/SGP4

EPOCH          = 2026-03-02T19:21:48.938688
MEAN_MOTION    = 13.77493276
ECCENTRICITY   = .0023437
INCLINATION    = 82.9463
RA_OF_ASC_NODE = 175.1623
ARG_OF_PERICENTER = 56.9103
MEAN_ANOMALY   = 55.3984

EPHEMERIS_TYPE = 0
CLASSIFICATION_TYPE = U
NORAD_CAT_ID   = 21088
ELEMENT_SET_NO = 999
REV_AT_EPOCH   = 76312
BSTAR          = .3407E-4
MEAN_MOTION_DOT = .49E-6
MEAN_MOTION_DDOT = 0

CCSDS_OMM_VERS = 2.0
CREATION_DATE  = 
ORIGINATOR     = 

OBJECT_NAME    = OKEAN-3
OBJECT_ID      = 1991-039A
CENTER_NAME    = EARTH
REF_FRAME      = TEME
TIME_SYSTEM    = UTC
MEAN_ELEMENT_THEORY = SGP/SGP4

EPOCH          = 2026-03-02T18:19:12.603648
MEAN_MOTION    = 15.04744684
ECCENTRICITY   = .0014363
INCLINATION    = 82.5201
RA_OF_ASC_NODE = 343.5519
ARG_OF_PERICENTER = 3.0672
MEAN_ANOMALY   = 357.0640

EPHEMERIS_TYPE = 0
CLASSIFICATION_TYPE = U
NORAD_CAT_ID   = 21397
ELEMENT_SET_NO = 999
REV_AT_EPOCH   = 86399
BSTAR          = .26828E-3
MEAN_MOTION_DOT = .3815E-4
MEAN_MOTION_DDOT = 0

CCSDS_OMM_VERS = 2.0
CREATION_DATE  = 
ORIGINATOR     = 

OBJECT_NAME    = COSMOS 2151
OBJECT_ID      = 1991-042A
CENTER_NAME    = EARTH
REF_FRAME      = TEME
TIME_SYSTEM    = UTC
MEAN_ELEMENT_THEORY = SGP/SGP4

EPOCH          = 2026-03-02T19:30:24.899616
MEAN_MOTION    = 15.00072578
ECCENTRICITY   = .0014145
INCLINATION    = 82.4931
RA_OF_ASC_NODE = 90.3116
ARG_OF_PERICENTER = 84.1054
MEAN_ANOMALY   = 276.1782

EPHEMERIS_TYPE = 0
CLASSIFICATION_TYPE = U
NORAD_CAT_ID   = 21422
ELEMENT_SET_NO = 999
REV_AT_EPOCH   = 86216
BSTAR          = .17467E-3
MEAN_MOTION_DOT = .2206E-4
MEAN_MOTION_DDOT = 0

